start=new Date('2023-02-02T00:00:00.000Z').valueOf();
sats=[{"ARG_OF_PERICENTER":"268.6171","PERIAPSIS":"476.226","DECAY_DATE":null,"FILE":"3767525","LAUNCH_DATE":"2022-12-28","CENTER_NAME":"EARTH","MEAN_MOTION_DOT":"-0.01221111","MEAN_ELEMENT_THEORY":"SGP4","REV_AT_EPOCH":"130","INCLINATION":"42.9977","CLASSIFICATION_TYPE":"U","ELEMENT_SET_NO":"999","SITE":"AFETR","EPHEMERIS_TYPE":"0","MEAN_MOTION_DDOT":"0.0000000000000","BSTAR":"-0.04545300000000","REF_FRAME":"TEME","SEMIMAJOR_AXIS":"6855.274","GP_ID":"224199826","TLE_LINE2":"2 54830  42.9977 166.1154 0001333 268.6171  54.4151 15.29556382  1305","OBJECT_ID":"2022-177L","RA_OF_ASC_NODE":"166.1154","TLE_LINE1":"1 54830U 22177L   23032.58334491 -.01221111  00000-0 -45453-1 0  9999","EPOCH":"2023-02-01T14:00:01.000224","COUNTRY_CODE":"US","APOAPSIS":"478.053","OBJECT_TYPE":"PAYLOAD","RCS_SIZE":"LARGE","OBJECT_NAME":"STARLINK-5394","PERIOD":"94.145","MEAN_MOTION":"15.29556382","MEAN_ANOMALY":"54.4151","NORAD_CAT_ID":"54830","TIME_SYSTEM":"UTC","ECCENTRICITY":"0.00013330"},{"MEAN_MOTION":"15.27898620","PERIOD":"94.247","OBJECT_NAME":"STARLINK-5395","ECCENTRICITY":"0.00012160","TIME_SYSTEM":"UTC","MEAN_ANOMALY":"355.1762","NORAD_CAT_ID":"54831","EPOCH":"2023-02-01T14:00:01.000224","COUNTRY_CODE":"US","TLE_LINE1":"1 54831U 22177M   23032.58334491 -.01214339  00000-0 -47557-1 0  9991","APOAPSIS":"482.931","OBJECT_TYPE":"PAYLOAD","RCS_SIZE":"LARGE","MEAN_MOTION_DDOT":"0.0000000000000","BSTAR":"-0.04755700000000","REF_FRAME":"TEME","SEMIMAJOR_AXIS":"6860.232","SITE":"AFETR","EPHEMERIS_TYPE":"0","TLE_LINE2":"2 54831  42.9974 166.2479 0001216 272.4898 355.1762 15.27898620  1304","OBJECT_ID":"2022-177M","RA_OF_ASC_NODE":"166.2479","GP_ID":"224200076","LAUNCH_DATE":"2022-12-28","FILE":"3767525","CENTER_NAME":"EARTH","MEAN_MOTION_DOT":"-0.01214339","ARG_OF_PERICENTER":"272.4898","PERIAPSIS":"481.263","DECAY_DATE":null,"CLASSIFICATION_TYPE":"U","ELEMENT_SET_NO":"999","REV_AT_EPOCH":"130","INCLINATION":"42.9974","MEAN_ELEMENT_THEORY":"SGP4"},{"TLE_LINE1":"1 54832U 22177N   23032.40529656  .00000683  00000-0  86635-5 0  9998","EPOCH":"2023-02-01T09:43:37.622784","COUNTRY_CODE":"US","RCS_SIZE":"LARGE","OBJECT_TYPE":"PAYLOAD","APOAPSIS":"356.419","OBJECT_NAME":"STARLINK-5393","MEAN_MOTION":"15.71351889","PERIOD":"91.641","NORAD_CAT_ID":"54832","MEAN_ANOMALY":"65.3409","ECCENTRICITY":"0.00020560","TIME_SYSTEM":"UTC","DECAY_DATE":null,"PERIAPSIS":"353.650","ARG_OF_PERICENTER":"294.7244","MEAN_MOTION_DOT":"0.00000683","FILE":"3767525","LAUNCH_DATE":"2022-12-28","CENTER_NAME":"EARTH","INCLINATION":"43.0010","REV_AT_EPOCH":"665","MEAN_ELEMENT_THEORY":"SGP4","ELEMENT_SET_NO":"999","CLASSIFICATION_TYPE":"U","EPHEMERIS_TYPE":"0","SITE":"AFETR","REF_FRAME":"TEME","BSTAR":"0.00000866350000","SEMIMAJOR_AXIS":"6733.169","MEAN_MOTION_DDOT":"0.0000000000000","GP_ID":"224200828","OBJECT_ID":"2022-177N","RA_OF_ASC_NODE":"163.7548","TLE_LINE2":"2 54832  43.0010 163.7548 0002056 294.7244  65.3409 15.71351889  6653"},{"ECCENTRICITY":"0.00015320","TIME_SYSTEM":"UTC","MEAN_ANOMALY":"74.5107","NORAD_CAT_ID":"54833","PERIOD":"94.221","MEAN_MOTION":"15.28326719","OBJECT_NAME":"STARLINK-5391","APOAPSIS":"481.867","OBJECT_TYPE":"PAYLOAD","RCS_SIZE":"LARGE","EPOCH":"2023-02-01T22:00:00.999936","COUNTRY_CODE":"US","TLE_LINE1":"1 54833U 22177P   23032.91667824 -.01239857  00000-0 -48004-1 0  9999","TLE_LINE2":"2 54833  42.9987 164.2555 0001532 272.7218  74.5107 15.28326719  5713","RA_OF_ASC_NODE":"164.2555","OBJECT_ID":"2022-177P","GP_ID":"224205097","MEAN_MOTION_DDOT":"0.0000000000000","BSTAR":"-0.04800400000000","REF_FRAME":"TEME","SEMIMAJOR_AXIS":"6858.951","EPHEMERIS_TYPE":"0","SITE":"AFETR","CLASSIFICATION_TYPE":"U","ELEMENT_SET_NO":"999","INCLINATION":"42.9987","REV_AT_EPOCH":"571","MEAN_ELEMENT_THEORY":"SGP4","CENTER_NAME":"EARTH","FILE":"3767707","LAUNCH_DATE":"2022-12-28","MEAN_MOTION_DOT":"-0.01239857","ARG_OF_PERICENTER":"272.7218","PERIAPSIS":"479.765","DECAY_DATE":null},{"SEMIMAJOR_AXIS":"6856.173","BSTAR":"-0.04659200000000","REF_FRAME":"TEME","MEAN_MOTION_DDOT":"0.0000000000000","EPHEMERIS_TYPE":"0","SITE":"AFETR","RA_OF_ASC_NODE":"164.1844","OBJECT_ID":"2022-177Q","TLE_LINE2":"2 54834  42.9991 164.1844 0001557 276.4986 100.8085 15.29255750  5714","GP_ID":"224205093","MEAN_MOTION_DOT":"-0.01238599","FILE":"3767707","LAUNCH_DATE":"2022-12-28","CENTER_NAME":"EARTH","PERIAPSIS":"476.970","DECAY_DATE":null,"ARG_OF_PERICENTER":"276.4986","ELEMENT_SET_NO":"999","CLASSIFICATION_TYPE":"U","INCLINATION":"42.9991","REV_AT_EPOCH":"571","MEAN_ELEMENT_THEORY":"SGP4","PERIOD":"94.163","MEAN_MOTION":"15.29255750","OBJECT_NAME":"STARLINK-5386","ECCENTRICITY":"0.00015570","TIME_SYSTEM":"UTC","NORAD_CAT_ID":"54834","MEAN_ANOMALY":"100.8085","COUNTRY_CODE":"US","EPOCH":"2023-02-01T22:00:00.999936","TLE_LINE1":"1 54834U 22177Q   23032.91667824 -.01238599  00000-0 -46592-1 0  9992","RCS_SIZE":"LARGE","APOAPSIS":"479.105","OBJECT_TYPE":"PAYLOAD"},{"MEAN_ANOMALY":"53.0639","NORAD_CAT_ID":"54835","TIME_SYSTEM":"UTC","ECCENTRICITY":"0.00015090","OBJECT_NAME":"STARLINK-5389","PERIOD":"94.260","MEAN_MOTION":"15.27686908","OBJECT_TYPE":"PAYLOAD","APOAPSIS":"483.766","RCS_SIZE":"LARGE","TLE_LINE1":"1 54835U 22177R   23032.91667824 -.01239663  00000-0 -48951-1 0  9997","EPOCH":"2023-02-01T22:00:00.999936","COUNTRY_CODE":"US","GP_ID":"224204789","TLE_LINE2":"2 54835  42.9978 164.3059 0001509 273.5685  53.0639 15.27686908  5716","OBJECT_ID":"2022-177R","RA_OF_ASC_NODE":"164.3059","SITE":"AFETR","EPHEMERIS_TYPE":"0","MEAN_MOTION_DDOT":"0.0000000000000","REF_FRAME":"TEME","BSTAR":"-0.04895100000000","SEMIMAJOR_AXIS":"6860.866","INCLINATION":"42.9978","REV_AT_EPOCH":"571","MEAN_ELEMENT_THEORY":"SGP4","CLASSIFICATION_TYPE":"U","ELEMENT_SET_NO":"999","ARG_OF_PERICENTER":"273.5685","DECAY_DATE":null,"PERIAPSIS":"481.696","FILE":"3767707","CENTER_NAME":"EARTH","LAUNCH_DATE":"2022-12-28","MEAN_MOTION_DOT":"-0.01239663"},{"SEMIMAJOR_AXIS":"6855.965","REF_FRAME":"TEME","BSTAR":"-0.04645600000000","MEAN_MOTION_DDOT":"0.0000000000000","SITE":"AFETR","EPHEMERIS_TYPE":"0","RA_OF_ASC_NODE":"164.1712","OBJECT_ID":"2022-177S","TLE_LINE2":"2 54836  42.9986 164.1712 0001577 277.3441 105.1660 15.29325392  5719","GP_ID":"224205101","MEAN_MOTION_DOT":"-0.01237737","LAUNCH_DATE":"2022-12-28","FILE":"3767707","CENTER_NAME":"EARTH","DECAY_DATE":null,"PERIAPSIS":"476.749","ARG_OF_PERICENTER":"277.3441","CLASSIFICATION_TYPE":"U","ELEMENT_SET_NO":"999","REV_AT_EPOCH":"571","INCLINATION":"42.9986","MEAN_ELEMENT_THEORY":"SGP4","PERIOD":"94.159","MEAN_MOTION":"15.29325392","OBJECT_NAME":"STARLINK-5384","TIME_SYSTEM":"UTC","ECCENTRICITY":"0.00015770","NORAD_CAT_ID":"54836","MEAN_ANOMALY":"105.1660","COUNTRY_CODE":"US","EPOCH":"2023-02-01T22:00:00.999936","TLE_LINE1":"1 54836U 22177S   23032.91667824 -.01237737  00000-0 -46456-1 0  9996","RCS_SIZE":"LARGE","APOAPSIS":"478.911","OBJECT_TYPE":"PAYLOAD"},{"NORAD_CAT_ID":"54837","MEAN_ANOMALY":"100.5790","ECCENTRICITY":"0.00015760","TIME_SYSTEM":"UTC","OBJECT_NAME":"STARLINK-5369","PERIOD":"94.160","MEAN_MOTION":"15.29314984","RCS_SIZE":"LARGE","APOAPSIS":"478.941","OBJECT_TYPE":"PAYLOAD","TLE_LINE1":"1 54837U 22177T   23032.91667824 -.01238496  00000-0 -46502-1 0  9992","COUNTRY_CODE":"US","EPOCH":"2023-02-01T22:00:00.999936","GP_ID":"224204780","RA_OF_ASC_NODE":"164.1776","OBJECT_ID":"2022-177T","TLE_LINE2":"2 54837  42.9983 164.1776 0001576 280.0291 100.5790 15.29314984  5718","EPHEMERIS_TYPE":"0","SITE":"AFETR","SEMIMAJOR_AXIS":"6855.996","BSTAR":"-0.04650200000000","REF_FRAME":"TEME","MEAN_MOTION_DDOT":"0.0000000000000","REV_AT_EPOCH":"571","INCLINATION":"42.9983","MEAN_ELEMENT_THEORY":"SGP4","CLASSIFICATION_TYPE":"U","ELEMENT_SET_NO":"999","PERIAPSIS":"476.780","DECAY_DATE":null,"ARG_OF_PERICENTER":"280.0291","MEAN_MOTION_DOT":"-0.01238496","FILE":"3767707","CENTER_NAME":"EARTH","LAUNCH_DATE":"2022-12-28"},{"EPHEMERIS_TYPE":"0","SITE":"AFETR","SEMIMAJOR_AXIS":"6854.684","REF_FRAME":"TEME","BSTAR":"-0.04586000000000","MEAN_MOTION_DDOT":"0.0000000000000","GP_ID":"224204781","RA_OF_ASC_NODE":"164.1335","OBJECT_ID":"2022-177U","TLE_LINE2":"2 54838  42.9997 164.1335 0001565 278.2719 119.2777 15.29754059  5710","PERIAPSIS":"475.476","DECAY_DATE":null,"ARG_OF_PERICENTER":"278.2719","MEAN_MOTION_DOT":"-0.01238204","CENTER_NAME":"EARTH","FILE":"3767707","LAUNCH_DATE":"2022-12-28","REV_AT_EPOCH":"571","MEAN_ELEMENT_THEORY":"SGP4","INCLINATION":"42.9997","ELEMENT_SET_NO":"999","CLASSIFICATION_TYPE":"U","OBJECT_NAME":"STARLINK-5372","PERIOD":"94.133","MEAN_MOTION":"15.29754059","NORAD_CAT_ID":"54838","MEAN_ANOMALY":"119.2777","ECCENTRICITY":"0.00015650","TIME_SYSTEM":"UTC","TLE_LINE1":"1 54838U 22177U   23032.91667824 -.01238204  00000-0 -45860-1 0  9996","COUNTRY_CODE":"US","EPOCH":"2023-02-01T22:00:00.999936","RCS_SIZE":"LARGE","OBJECT_TYPE":"PAYLOAD","APOAPSIS":"477.622"},{"OBJECT_TYPE":"PAYLOAD","APOAPSIS":"476.533","RCS_SIZE":"LARGE","EPOCH":"2023-02-01T22:00:00.999936","COUNTRY_CODE":"US","TLE_LINE1":"1 54839U 22177V   23032.91667824 -.01238216  00000-0 -45349-1 0  9992","ECCENTRICITY":"0.00015450","TIME_SYSTEM":"UTC","MEAN_ANOMALY":"131.6449","NORAD_CAT_ID":"54839","PERIOD":"94.111","MEAN_MOTION":"15.30114081","OBJECT_NAME":"STARLINK-5110","ELEMENT_SET_NO":"999","CLASSIFICATION_TYPE":"U","REV_AT_EPOCH":"571","MEAN_ELEMENT_THEORY":"SGP4","INCLINATION":"42.9981","FILE":"3767707","CENTER_NAME":"EARTH","LAUNCH_DATE":"2022-12-28","MEAN_MOTION_DOT":"-0.01238216","ARG_OF_PERICENTER":"278.8180","PERIAPSIS":"474.415","DECAY_DATE":null,"TLE_LINE2":"2 54839  42.9981 164.1051 0001545 278.8180 131.6449 15.30114081  5716","OBJECT_ID":"2022-177V","RA_OF_ASC_NODE":"164.1051","GP_ID":"224204788","MEAN_MOTION_DDOT":"0.0000000000000","REF_FRAME":"TEME","BSTAR":"-0.04534900000000","SEMIMAJOR_AXIS":"6853.609","EPHEMERIS_TYPE":"0","SITE":"AFETR"}];
